CORVUS BC4              
1 43767U 18099K   26068.65923737  .00005714  00000+0  33980-3 0  9990
2 43767  97.4206 114.5457 0008046 356.5821   3.5354 15.11615710397368
STARLINK-3609           
1 51808U 22017AS  26068.88948784  .00000074  00000+0  22737-4 0  9997
2 51808  53.2191 338.2216 0001340 105.4899 254.6241 15.08838625223999
